EUTELSAT 8 WEST B       
1 40875U 15039B   25331.93555367 -.00000046  00000+0  00000+0 0  9998
2 40875   0.0683   9.0620 0004189 241.8286 145.0178  1.00271639 37637
EUTELSAT 9B             
1 41310U 16005A   25331.89627968  .00000081  00000+0  00000+0 0  9997
2 41310   0.0514  71.0676 0004497 189.5516 138.1119  1.00270239 36093
EUTELSAT 65 WEST A      
1 41382U 16014A   25331.21078694 -.00000257  00000+0  00000+0 0  9994
2 41382   0.0625  30.5595 0002654 224.5221 181.9701  1.00268382 35516
EUTELSAT 117 WEST B     
1 41589U 16038B   25331.69999222  .00000008  00000+0  00000+0 0  9993
2 41589   0.0056 134.9195 0000242 135.2793 291.6722  1.00271463 34640
EUTELSAT 172B           
1 42741U 17029B   25331.89993346  .00000014  00000+0  00000+0 0  9995
2 42741   0.0319 159.8487 0000106 313.5288  89.6759  1.00269992 31716
EUTELSAT 7C             
1 44334U 19034B   25331.86717325  .00000068  00000+0  00000+0 0  9990
2 44334   0.0771 184.3956 0003125  42.9375 158.9064  1.00269052  4813
EUTELSAT 5 WEST B       
1 44624U 19067A   25331.93616035 -.00000022  00000+0  00000+0 0  9993
2 44624   0.0640 342.3745 0003293 263.4124 153.3472  1.00271305 22412
EUTELSAT KONNECT        
1 45027U 20005B   25330.08357684  .00000069  00000+0  00000+0 0  9992
2 45027   0.0673  99.8219 0001391 197.5930 165.1507  1.00270244 22292
